[{"OBJECT_NAME":"GAOFEN-9 03","OBJECT_ID":"2020-039A","EPOCH":"2026-03-09T21:55:15.121344","MEAN_MOTION":15.30529116,"ECCENTRICITY":0.0013094,"INCLINATION":97.5219,"RA_OF_ASC_NODE":201.2158,"ARG_OF_PERICENTER":77.4533,"MEAN_ANOMALY":282.8172,"EPHEMERIS_TYPE":0,"CLASSIFICATION_TYPE":"U","NORAD_CAT_ID":45794,"ELEMENT_SET_NO":999,"REV_AT_EPOCH":31856,"BSTAR":0.00039258132,"MEAN_MOTION_DOT":0.00011544,"MEAN_MOTION_DDOT":0},{"OBJECT_NAME":"STARLINK-34247","OBJECT_ID":"2025-167F","EPOCH":"2026-03-09T06:54:57.430944","MEAN_MOTION":15.30140319,"ECCENTRICITY":0.00011315,"INCLINATION":53.1607,"RA_OF_ASC_NODE":26.0683,"ARG_OF_PERICENTER":114.2157,"MEAN_ANOMALY":245.8962,"EPHEMERIS_TYPE":0,"CLASSIFICATION_TYPE":"U","NORAD_CAT_ID":65083,"ELEMENT_SET_NO":999,"REV_AT_EPOCH":3345,"BSTAR":0.0013333294,"MEAN_MOTION_DOT":0.00039266,"MEAN_MOTION_DDOT":0}]
